<?xml version="1.0" encoding="UTF-8"?>
<ndm xmlns:xsi="http://www.w3.org/2001/XMLSchema-instance" xsi:noNamespaceSchemaLocation="https://sanaregistry.org/r/ndmxml_unqualified/ndmxml-2.0.0-master-2.0.xsd">
<omm id="CCSDS_OMM_VERS" version="2.0">
<header><CREATION_DATE/><ORIGINATOR/></header><body><segment><metadata><OBJECT_NAME>ONEWEB-0513</OBJECT_NAME><OBJECT_ID>2022-138U</OBJECT_ID><CENTER_NAME>EARTH</CENTER_NAME><REF_FRAME>TEME</REF_FRAME><TIME_SYSTEM>UTC</TIME_SYSTEM><MEAN_ELEMENT_THEORY>SGP4</MEAN_ELEMENT_THEORY></metadata><data><meanElements><EPOCH>2024-08-10T14:23:46.111200</EPOCH><MEAN_MOTION>13.19725000</MEAN_MOTION><ECCENTRICITY>.0001705</ECCENTRICITY><INCLINATION>87.9106</INCLINATION><RA_OF_ASC_NODE>79.3889</RA_OF_ASC_NODE><ARG_OF_PERICENTER>62.4538</ARG_OF_PERICENTER><MEAN_ANOMALY>297.6768</MEAN_ANOMALY></meanElements><tleParameters><EPHEMERIS_TYPE>0</EPHEMERIS_TYPE><CLASSIFICATION_TYPE>U</CLASSIFICATION_TYPE><NORAD_CAT_ID>54131</NORAD_CAT_ID><ELEMENT_SET_NO>999</ELEMENT_SET_NO><REV_AT_EPOCH>8758</REV_AT_EPOCH><BSTAR>-.527E-4</BSTAR><MEAN_MOTION_DOT>-.8E-7</MEAN_MOTION_DOT><MEAN_MOTION_DDOT>0</MEAN_MOTION_DDOT></tleParameters></data></segment></body></omm>
<omm id="CCSDS_OMM_VERS" version="2.0">
<header><CREATION_DATE/><ORIGINATOR/></header><body><segment><metadata><OBJECT_NAME>ONEWEB-0514</OBJECT_NAME><OBJECT_ID>2022-138V</OBJECT_ID><CENTER_NAME>EARTH</CENTER_NAME><REF_FRAME>TEME</REF_FRAME><TIME_SYSTEM>UTC</TIME_SYSTEM><MEAN_ELEMENT_THEORY>SGP4</MEAN_ELEMENT_THEORY></metadata><data><meanElements><EPOCH>2024-08-10T13:39:25.526880</EPOCH><MEAN_MOTION>13.19723899</MEAN_MOTION><ECCENTRICITY>.0001815</ECCENTRICITY><INCLINATION>87.9104</INCLINATION><RA_OF_ASC_NODE>79.3885</RA_OF_ASC_NODE><ARG_OF_PERICENTER>82.5137</ARG_OF_PERICENTER><MEAN_ANOMALY>277.6202</MEAN_ANOMALY></meanElements><tleParameters><EPHEMERIS_TYPE>0</EPHEMERIS_TYPE><CLASSIFICATION_TYPE>U</CLASSIFICATION_TYPE><NORAD_CAT_ID>54132</NORAD_CAT_ID><ELEMENT_SET_NO>999</ELEMENT_SET_NO><REV_AT_EPOCH>8771</REV_AT_EPOCH><BSTAR>.20201E-4</BSTAR><MEAN_MOTION_DOT>.21E-6</MEAN_MOTION_DOT><MEAN_MOTION_DDOT>0</MEAN_MOTION_DDOT></tleParameters></data></segment></body></omm>
<omm id="CCSDS_OMM_VERS" version="2.0">
<header><CREATION_DATE/><ORIGINATOR/></header><body><segment><metadata><OBJECT_NAME>ONEWEB-0515</OBJECT_NAME><OBJECT_ID>2022-138W</OBJECT_ID><CENTER_NAME>EARTH</CENTER_NAME><REF_FRAME>TEME</REF_FRAME><TIME_SYSTEM>UTC</TIME_SYSTEM><MEAN_ELEMENT_THEORY>SGP4</MEAN_ELEMENT_THEORY></metadata><data><meanElements><EPOCH>2024-08-10T14:17:36.040992</EPOCH><MEAN_MOTION>13.20773216</MEAN_MOTION><ECCENTRICITY>.0002119</ECCENTRICITY><INCLINATION>87.9184</INCLINATION><RA_OF_ASC_NODE>48.8036</RA_OF_ASC_NODE><ARG_OF_PERICENTER>118.3897</ARG_OF_PERICENTER><MEAN_ANOMALY>241.7450</MEAN_ANOMALY></meanElements><tleParameters><EPHEMERIS_TYPE>0</EPHEMERIS_TYPE><CLASSIFICATION_TYPE>U</CLASSIFICATION_TYPE><NORAD_CAT_ID>54133</NORAD_CAT_ID><ELEMENT_SET_NO>999</ELEMENT_SET_NO><REV_AT_EPOCH>9012</REV_AT_EPOCH><BSTAR>.15834E-3</BSTAR><MEAN_MOTION_DOT>.77E-6</MEAN_MOTION_DOT><MEAN_MOTION_DDOT>0</MEAN_MOTION_DDOT></tleParameters></data></segment></body></omm>
<omm id="CCSDS_OMM_VERS" version="2.0">
<header><CREATION_DATE/><ORIGINATOR/></header><body><segment><metadata><OBJECT_NAME>ONEWEB-0516</OBJECT_NAME><OBJECT_ID>2022-138X</OBJECT_ID><CENTER_NAME>EARTH</CENTER_NAME><REF_FRAME>TEME</REF_FRAME><TIME_SYSTEM>UTC</TIME_SYSTEM><MEAN_ELEMENT_THEORY>SGP4</MEAN_ELEMENT_THEORY></metadata><data><meanElements><EPOCH>2024-08-10T14:52:12.294336</EPOCH><MEAN_MOTION>13.19726434</MEAN_MOTION><ECCENTRICITY>.0001627</ECCENTRICITY><INCLINATION>87.9110</INCLINATION><RA_OF_ASC_NODE>79.3932</RA_OF_ASC_NODE><ARG_OF_PERICENTER>82.4448</ARG_OF_PERICENTER><MEAN_ANOMALY>277.6869</MEAN_ANOMALY></meanElements><tleParameters><EPHEMERIS_TYPE>0</EPHEMERIS_TYPE><CLASSIFICATION_TYPE>U</CLASSIFICATION_TYPE><NORAD_CAT_ID>54134</NORAD_CAT_ID><ELEMENT_SET_NO>999</ELEMENT_SET_NO><REV_AT_EPOCH>8772</REV_AT_EPOCH><BSTAR>.18328E-3</BSTAR><MEAN_MOTION_DOT>.86E-6</MEAN_MOTION_DOT><MEAN_MOTION_DDOT>0</MEAN_MOTION_DDOT></tleParameters></data></segment></body></omm>
<omm id="CCSDS_OMM_VERS" version="2.0">
<header><CREATION_DATE/><ORIGINATOR/></header><body><segment><metadata><OBJECT_NAME>ONEWEB-0517</OBJECT_NAME><OBJECT_ID>2022-138Y</OBJECT_ID><CENTER_NAME>EARTH</CENTER_NAME><REF_FRAME>TEME</REF_FRAME><TIME_SYSTEM>UTC</TIME_SYSTEM><MEAN_ELEMENT_THEORY>SGP4</MEAN_ELEMENT_THEORY></metadata><data><meanElements><EPOCH>2024-08-10T14:22:38.266464</EPOCH><MEAN_MOTION>13.19724150</MEAN_MOTION><ECCENTRICITY>.0002102</ECCENTRICITY><INCLINATION>87.9101</INCLINATION><RA_OF_ASC_NODE>79.3786</RA_OF_ASC_NODE><ARG_OF_PERICENTER>75.2248</ARG_OF_PERICENTER><MEAN_ANOMALY>284.9118</MEAN_ANOMALY></meanElements><tleParameters><EPHEMERIS_TYPE>0</EPHEMERIS_TYPE><CLASSIFICATION_TYPE>U</CLASSIFICATION_TYPE><NORAD_CAT_ID>54135</NORAD_CAT_ID><ELEMENT_SET_NO>999</ELEMENT_SET_NO><REV_AT_EPOCH>8772</REV_AT_EPOCH><BSTAR>.17316E-3</BSTAR><MEAN_MOTION_DOT>.82E-6</MEAN_MOTION_DOT><MEAN_MOTION_DDOT>0</MEAN_MOTION_DDOT></tleParameters></data></segment></body></omm>
<omm id="CCSDS_OMM_VERS" version="2.0">
<header><CREATION_DATE/><ORIGINATOR/></header><body><segment><metadata><OBJECT_NAME>ONEWEB-0518</OBJECT_NAME><OBJECT_ID>2022-138Z</OBJECT_ID><CENTER_NAME>EARTH</CENTER_NAME><REF_FRAME>TEME</REF_FRAME><TIME_SYSTEM>UTC</TIME_SYSTEM><MEAN_ELEMENT_THEORY>SGP4</MEAN_ELEMENT_THEORY></metadata><data><meanElements><EPOCH>2024-08-10T14:49:56.376768</EPOCH><MEAN_MOTION>13.19724495</MEAN_MOTION><ECCENTRICITY>.0001813</ECCENTRICITY><INCLINATION>87.9109</INCLINATION><RA_OF_ASC_NODE>79.3912</RA_OF_ASC_NODE><ARG_OF_PERICENTER>79.8313</ARG_OF_PERICENTER><MEAN_ANOMALY>280.3024</MEAN_ANOMALY></meanElements><tleParameters><EPHEMERIS_TYPE>0</EPHEMERIS_TYPE><CLASSIFICATION_TYPE>U</CLASSIFICATION_TYPE><NORAD_CAT_ID>54136</NORAD_CAT_ID><ELEMENT_SET_NO>999</ELEMENT_SET_NO><REV_AT_EPOCH>8772</REV_AT_EPOCH><BSTAR>.20045E-3</BSTAR><MEAN_MOTION_DOT>.93E-6</MEAN_MOTION_DOT><MEAN_MOTION_DDOT>0</MEAN_MOTION_DDOT></tleParameters></data></segment></body></omm>
<omm id="CCSDS_OMM_VERS" version="2.0">
<header><CREATION_DATE/><ORIGINATOR/></header><body><segment><metadata><OBJECT_NAME>ONEWEB-0519</OBJECT_NAME><OBJECT_ID>2022-138AA</OBJECT_ID><CENTER_NAME>EARTH</CENTER_NAME><REF_FRAME>TEME</REF_FRAME><TIME_SYSTEM>UTC</TIME_SYSTEM><MEAN_ELEMENT_THEORY>SGP4</MEAN_ELEMENT_THEORY></metadata><data><meanElements><EPOCH>2024-08-10T13:37:09.424416</EPOCH><MEAN_MOTION>13.19724129</MEAN_MOTION><ECCENTRICITY>.0001767</ECCENTRICITY><INCLINATION>87.9103</INCLINATION><RA_OF_ASC_NODE>79.3802</RA_OF_ASC_NODE><ARG_OF_PERICENTER>67.8021</ARG_OF_PERICENTER><MEAN_ANOMALY>292.3299</MEAN_ANOMALY></meanElements><tleParameters><EPHEMERIS_TYPE>0</EPHEMERIS_TYPE><CLASSIFICATION_TYPE>U</CLASSIFICATION_TYPE><NORAD_CAT_ID>54137</NORAD_CAT_ID><ELEMENT_SET_NO>999</ELEMENT_SET_NO><REV_AT_EPOCH>8772</REV_AT_EPOCH><BSTAR>.11885E-3</BSTAR><MEAN_MOTION_DOT>.61E-6</MEAN_MOTION_DOT><MEAN_MOTION_DDOT>0</MEAN_MOTION_DDOT></tleParameters></data></segment></body></omm>
<omm id="CCSDS_OMM_VERS" version="2.0">
<header><CREATION_DATE/><ORIGINATOR/></header><body><segment><metadata><OBJECT_NAME>ONEWEB-0520</OBJECT_NAME><OBJECT_ID>2022-138AB</OBJECT_ID><CENTER_NAME>EARTH</CENTER_NAME><REF_FRAME>TEME</REF_FRAME><TIME_SYSTEM>UTC</TIME_SYSTEM><MEAN_ELEMENT_THEORY>SGP4</MEAN_ELEMENT_THEORY></metadata><data><meanElements><EPOCH>2024-08-10T14:27:11.395008</EPOCH><MEAN_MOTION>13.19725218</MEAN_MOTION><ECCENTRICITY>.0001389</ECCENTRICITY><INCLINATION>87.9102</INCLINATION><RA_OF_ASC_NODE>79.3762</RA_OF_ASC_NODE><ARG_OF_PERICENTER>68.5770</ARG_OF_PERICENTER><MEAN_ANOMALY>291.5511</MEAN_ANOMALY></meanElements><tleParameters><EPHEMERIS_TYPE>0</EPHEMERIS_TYPE><CLASSIFICATION_TYPE>U</CLASSIFICATION_TYPE><NORAD_CAT_ID>54138</NORAD_CAT_ID><ELEMENT_SET_NO>999</ELEMENT_SET_NO><REV_AT_EPOCH>8771</REV_AT_EPOCH><BSTAR>.69474E-4</BSTAR><MEAN_MOTION_DOT>.41E-6</MEAN_MOTION_DOT><MEAN_MOTION_DDOT>0</MEAN_MOTION_DDOT></tleParameters></data></segment></body></omm>
<omm id="CCSDS_OMM_VERS" version="2.0">
<header><CREATION_DATE/><ORIGINATOR/></header><body><segment><metadata><OBJECT_NAME>ONEWEB-0521</OBJECT_NAME><OBJECT_ID>2022-138AC</OBJECT_ID><CENTER_NAME>EARTH</CENTER_NAME><REF_FRAME>TEME</REF_FRAME><TIME_SYSTEM>UTC</TIME_SYSTEM><MEAN_ELEMENT_THEORY>SGP4</MEAN_ELEMENT_THEORY></metadata><data><meanElements><EPOCH>2024-08-10T13:25:47.178912</EPOCH><MEAN_MOTION>13.19725128</MEAN_MOTION><ECCENTRICITY>.0002008</ECCENTRICITY><INCLINATION>87.9100</INCLINATION><RA_OF_ASC_NODE>79.3767</RA_OF_ASC_NODE><ARG_OF_PERICENTER>81.7116</ARG_OF_PERICENTER><MEAN_ANOMALY>278.4245</MEAN_ANOMALY></meanElements><tleParameters><EPHEMERIS_TYPE>0</EPHEMERIS_TYPE><CLASSIFICATION_TYPE>U</CLASSIFICATION_TYPE><NORAD_CAT_ID>54139</NORAD_CAT_ID><ELEMENT_SET_NO>999</ELEMENT_SET_NO><REV_AT_EPOCH>8765</REV_AT_EPOCH><BSTAR>.16111E-3</BSTAR><MEAN_MOTION_DOT>.77E-6</MEAN_MOTION_DOT><MEAN_MOTION_DDOT>0</MEAN_MOTION_DDOT></tleParameters></data></segment></body></omm>

</ndm>
